QIANFAN-25              
1 61558U 24185G   25326.43828171  .00000564  00000+0  33665-3 0  9997
2 61558  88.9805  80.4821 0010217  23.5735 336.5913 14.05883103 66650
QIANFAN-26              
1 61559U 24185H   25326.41399236  .00000374  00000+0  36101-3 0  9998
2 61559  88.9806  81.9396 0007344  80.3918 279.8077 13.77796030 65879
QIANFAN-27              
1 61560U 24185J   25326.41766611  .00000657  00000+0  26255-3 0  9998
2 61560  88.9801  79.3214 0007754  12.3198 347.8184 14.27296071 67262
QIANFAN-28              
1 61561U 24185K   25326.40965291  .00001166  00000+0  46454-3 0  9992
2 61561  88.9819  79.3238 0006998  13.1218 347.0157 14.27974469 67276
QIANFAN-29              
1 61562U 24185L   25326.37173965  .00000190  00000+0  27542-3 0  9991
2 61562  88.9782  83.4105 0011794 109.4703 250.7724 13.51000542 65044
QIANFAN-30              
1 61563U 24185M   25326.40530300  .00000293  00000+0  44201-3 0  9991
2 61563  88.9802  82.9246 0009267  96.9550 263.2655 13.49979791 65321
QIANFAN-31              
1 61564U 24185N   25326.41938382  .00000113  00000+0  14010-3 0  9991
2 61564  88.9786  82.7575 0008702  93.1050 267.1101 13.57954223 65403
QIANFAN-32              
1 61565U 24185P   25326.38496703  .00000183  00000+0  26536-3 0  9997
2 61565  88.9845  83.0547 0011117 119.4745 240.7516 13.50724661 65298
